[
    {
        "Altitude(m)": 611967.1710715295,
        "Argument of Periapsis(deg)": 0.0,
        "Eccentricity": 0.0,
        "Inclination(deg)": 60.0,
        "Latitude(deg)": 59.14013774865568,
        "Longitude(deg)": -3.9081041101181255,
        "Mean Anomaly(deg)": -261.8182,
        "RAAN(deg)": 350.0,
        "Satellite Name": "Test1 1546",
        "Satellite Number": 1546,
        "Semi-Major Axis(m)": 6980739.136638005,
        "Time(s)": 0
    },
    {
        "Altitude(m)": 611934.3715424493,
        "Argument of Periapsis(deg)": 0.00010418945913296404,
        "Eccentricity": 0.0,
        "Inclination(deg)": 60.0,
        "Latitude(deg)": 58.98650183849851,
        "Longitude(deg)": -2.784858141077234,
        "Mean Anomaly(deg)": -261.1980938545382,
        "RAAN(deg)": 349.99957995086027,
        "Satellite Name": "Test1 1546",
        "Satellite Number": 1546,
        "Semi-Major Axis(m)": 6980739.136638005,
        "Time(s)": 10
    }
]